*******************************************************************************
Ephemeris / WWW_USER Fri Mar  7 09:57:48 2025 Pasadena, USA      / Horizons    
*******************************************************************************
Target body name: 358P/PANSTARRS                  {source: JPL#33}
Center body name: Earth (399)                     {source: DE441}
Center-site name: Mauna Kea
*******************************************************************************
Start time      : A.D. 2018-Nov-23 03:51:00.0000 UT      
Stop  time      : A.D. 2018-Nov-23 16:25:00.0000 UT      
Step-size       : 1 minutes
*******************************************************************************
Target pole/equ : undefined
Target radii    : undefined                                                    
Center geodetic : 204.5278, 19.8260847, 4.21024   {E-lon(deg),Lat(deg),Alt(km)}
Center cylindric: 204.5278, 6006.35451, 2151.0229 {E-lon(deg),Dxy(km),Dz(km)}
Center pole/equ : ITRF93                          {East-longitude positive}
Center radii    : 6378.137, 6378.137, 6356.752 km {Equator_a, b, pole_c}       
Target primary  : Sun
Vis. interferer : MOON (R_eq= 1737.400) km        {source: DE441}
Rel. light bend : Sun                             {source: DE441}
Rel. lght bnd GM: 1.3271E+11 km^3/s^2                                          
Small-body perts: Yes                             {source: SB441-N16}
Atmos refraction: NO (AIRLESS)
RA format       : HMS
Time format     : CAL 
Calendar mode   : Mixed Julian/Gregorian
RTS-only print  : NO       
EOP file        : eop.250306.p250602                                           
EOP coverage    : DATA-BASED 1962-JAN-20 TO 2025-MAR-06. PREDICTS-> 2025-JUN-01
Units conversion: 1 au= 149597870.700 km, c= 299792.458 km/s, 1 day= 86400.0 s 
Table cut-offs 1: Elevation (-90.0deg=NO ),Airmass (>38.000=NO), Daylight (YES)
Table cut-offs 2: Solar elongation (  0.0,180.0=NO ),Local Hour Angle( 0.0=NO )
Table cut-offs 3: RA/DEC angular rate (     0.0=NO )                           
*******************************************************************************
Initial IAU76/J2000 heliocentric ecliptic osculating elements (au, days, deg.):
  EPOCH=  2459793.5 ! 2022-Aug-02.0000000 (TDB)    RMSW= n.a.                  
   EC= .2388922136090974   QR= 2.394903345037887   TP= 2460259.6862889272      
   OM= 85.70246509974154   W= 299.7728624007243    IN= 11.06025031481611       
  Equivalent ICRF heliocentric cartesian coordinates (au, au/d):
   X= 3.243054425204740E-01  Y=-2.897679241187805E+00  Z=-1.376383147061824E+00
  VX= 8.746409534656921E-03 VY= 3.598394346577952E-03 VZ=-2.469697424538527E-04
Comet physical (GM= km^3/s^2; RAD= km):                                        
   GM= n.a.                RAD= n.a.                                           
   M1=  7.8      M2=  17.2     k1=  30.    k2=  5.      PHCOF=  .030           
Comet non-gravitational force model (AMRAT=m^2/kg;A1-A3=au/d^2;DT=days;R0=au): 
   AMRAT=  0.                                      DT=  0.                     
   A1= 0.                  A2= -2.303385920823E-10 A3= 0.                      
 Standard model:                                                               
   ALN=  .1112620426   NK=  4.6142   NM=  2.15     NN=  5.093    R0=  2.808    
*******************************************************************************
 Date__(UT)__HR:MN     R.A._________(ICRF)_________DEC
******************************************************
$$SOE
 2018-Nov-23 05:48  m  06 48 48.559318 +23 24 30.12161
 2018-Nov-23 05:49  m  06 48 48.542390 +23 24 30.32001
 2018-Nov-23 05:50  m  06 48 48.525456 +23 24 30.51843
 2018-Nov-23 05:51  m  06 48 48.508515 +23 24 30.71687
 2018-Nov-23 05:52  m  06 48 48.491567 +23 24 30.91531
 2018-Nov-23 05:53  m  06 48 48.474612 +23 24 31.11376
 2018-Nov-23 05:54  m  06 48 48.457650 +23 24 31.31223
 2018-Nov-23 05:55  m  06 48 48.440682 +23 24 31.51071
 2018-Nov-23 05:56  m  06 48 48.423707 +23 24 31.70920
 2018-Nov-23 05:57  m  06 48 48.406725 +23 24 31.90770
 2018-Nov-23 05:58  m  06 48 48.389736 +23 24 32.10622
 2018-Nov-23 05:59  m  06 48 48.372740 +23 24 32.30474
 2018-Nov-23 06:00  m  06 48 48.355738 +23 24 32.50328
 2018-Nov-23 06:01  m  06 48 48.338728 +23 24 32.70182
 2018-Nov-23 06:02  m  06 48 48.321712 +23 24 32.90038
 2018-Nov-23 06:03  m  06 48 48.304689 +23 24 33.09894
 2018-Nov-23 06:04  m  06 48 48.287659 +23 24 33.29752
 2018-Nov-23 06:05  m  06 48 48.270622 +23 24 33.49611
 2018-Nov-23 06:06  m  06 48 48.253579 +23 24 33.69471
 2018-Nov-23 06:07  m  06 48 48.236528 +23 24 33.89331
 2018-Nov-23 06:08  m  06 48 48.219471 +23 24 34.09193
 2018-Nov-23 06:09  m  06 48 48.202406 +23 24 34.29056
 2018-Nov-23 06:10  m  06 48 48.185335 +23 24 34.48919
 2018-Nov-23 06:11  m  06 48 48.168257 +23 24 34.68784
 2018-Nov-23 06:12  m  06 48 48.151172 +23 24 34.88650
 2018-Nov-23 06:13  m  06 48 48.134080 +23 24 35.08516
 2018-Nov-23 06:14  m  06 48 48.116981 +23 24 35.28383
 2018-Nov-23 06:15  r  06 48 48.099875 +23 24 35.48251
 2018-Nov-23 06:16  m  06 48 48.082762 +23 24 35.68120
 2018-Nov-23 06:17  m  06 48 48.065643 +23 24 35.87990
 2018-Nov-23 06:18  m  06 48 48.048516 +23 24 36.07861
 2018-Nov-23 06:19  m  06 48 48.031382 +23 24 36.27733
 2018-Nov-23 06:20  m  06 48 48.014242 +23 24 36.47605
 2018-Nov-23 06:21  m  06 48 47.997094 +23 24 36.67478
 2018-Nov-23 06:22  m  06 48 47.979939 +23 24 36.87352
 2018-Nov-23 06:23  m  06 48 47.962778 +23 24 37.07226
 2018-Nov-23 06:24  m  06 48 47.945609 +23 24 37.27102
 2018-Nov-23 06:25  m  06 48 47.928434 +23 24 37.46978
 2018-Nov-23 06:26  m  06 48 47.911251 +23 24 37.66855
 2018-Nov-23 06:27  m  06 48 47.894062 +23 24 37.86732
 2018-Nov-23 06:28  m  06 48 47.876865 +23 24 38.06611
 2018-Nov-23 06:29  m  06 48 47.859662 +23 24 38.26489
 2018-Nov-23 06:30  m  06 48 47.842451 +23 24 38.46369
 2018-Nov-23 06:31  m  06 48 47.825234 +23 24 38.66249
 2018-Nov-23 06:32  m  06 48 47.808009 +23 24 38.86130
 2018-Nov-23 06:33  m  06 48 47.790778 +23 24 39.06011
 2018-Nov-23 06:34  m  06 48 47.773539 +23 24 39.25893
 2018-Nov-23 06:35  m  06 48 47.756294 +23 24 39.45776
 2018-Nov-23 06:36  m  06 48 47.739041 +23 24 39.65659
 2018-Nov-23 06:37  m  06 48 47.721781 +23 24 39.85543
 2018-Nov-23 06:38  m  06 48 47.704514 +23 24 40.05427
 2018-Nov-23 06:39  m  06 48 47.687241 +23 24 40.25312
 2018-Nov-23 06:40  m  06 48 47.669960 +23 24 40.45197
 2018-Nov-23 06:41  m  06 48 47.652672 +23 24 40.65083
 2018-Nov-23 06:42  m  06 48 47.635377 +23 24 40.84969
 2018-Nov-23 06:43  m  06 48 47.618075 +23 24 41.04856
 2018-Nov-23 06:44  m  06 48 47.600766 +23 24 41.24743
 2018-Nov-23 06:45  m  06 48 47.583450 +23 24 41.44631
 2018-Nov-23 06:46  m  06 48 47.566127 +23 24 41.64519
 2018-Nov-23 06:47  m  06 48 47.548797 +23 24 41.84407
 2018-Nov-23 06:48  m  06 48 47.531459 +23 24 42.04296
 2018-Nov-23 06:49  m  06 48 47.514115 +23 24 42.24185
 2018-Nov-23 06:50  m  06 48 47.496764 +23 24 42.44074
 2018-Nov-23 06:51  m  06 48 47.479405 +23 24 42.63964
 2018-Nov-23 06:52  m  06 48 47.462040 +23 24 42.83854
 2018-Nov-23 06:53  m  06 48 47.444667 +23 24 43.03745
 2018-Nov-23 06:54  m  06 48 47.427287 +23 24 43.23636
 2018-Nov-23 06:55  m  06 48 47.409901 +23 24 43.43527
 2018-Nov-23 06:56  m  06 48 47.392507 +23 24 43.63418
 2018-Nov-23 06:57  m  06 48 47.375106 +23 24 43.83310
 2018-Nov-23 06:58  m  06 48 47.357698 +23 24 44.03202
 2018-Nov-23 06:59  m  06 48 47.340283 +23 24 44.23094
 2018-Nov-23 07:00  m  06 48 47.322861 +23 24 44.42986
 2018-Nov-23 07:01  m  06 48 47.305431 +23 24 44.62878
 2018-Nov-23 07:02  m  06 48 47.287995 +23 24 44.82771
 2018-Nov-23 07:03  m  06 48 47.270552 +23 24 45.02664
 2018-Nov-23 07:04  m  06 48 47.253101 +23 24 45.22557
 2018-Nov-23 07:05  m  06 48 47.235644 +23 24 45.42450
 2018-Nov-23 07:06  m  06 48 47.218179 +23 24 45.62343
 2018-Nov-23 07:07  m  06 48 47.200707 +23 24 45.82236
 2018-Nov-23 07:08  m  06 48 47.183229 +23 24 46.02130
 2018-Nov-23 07:09  m  06 48 47.165743 +23 24 46.22023
 2018-Nov-23 07:10  m  06 48 47.148250 +23 24 46.41917
 2018-Nov-23 07:11  m  06 48 47.130750 +23 24 46.61810
 2018-Nov-23 07:12  m  06 48 47.113243 +23 24 46.81704
 2018-Nov-23 07:13  m  06 48 47.095729 +23 24 47.01598
 2018-Nov-23 07:14  m  06 48 47.078207 +23 24 47.21491
 2018-Nov-23 07:15  m  06 48 47.060679 +23 24 47.41385
 2018-Nov-23 07:16  m  06 48 47.043144 +23 24 47.61278
 2018-Nov-23 07:17  m  06 48 47.025601 +23 24 47.81172
 2018-Nov-23 07:18  m  06 48 47.008052 +23 24 48.01065
 2018-Nov-23 07:19  m  06 48 46.990495 +23 24 48.20959
 2018-Nov-23 07:20  m  06 48 46.972931 +23 24 48.40852
 2018-Nov-23 07:21  m  06 48 46.955361 +23 24 48.60745
 2018-Nov-23 07:22  m  06 48 46.937783 +23 24 48.80638
 2018-Nov-23 07:23  m  06 48 46.920198 +23 24 49.00531
 2018-Nov-23 07:24  m  06 48 46.902606 +23 24 49.20424
 2018-Nov-23 07:25  m  06 48 46.885007 +23 24 49.40316
 2018-Nov-23 07:26  m  06 48 46.867401 +23 24 49.60209
 2018-Nov-23 07:27  m  06 48 46.849788 +23 24 49.80101
 2018-Nov-23 07:28  m  06 48 46.832168 +23 24 49.99993
 2018-Nov-23 07:29  m  06 48 46.814541 +23 24 50.19885
 2018-Nov-23 07:30  m  06 48 46.796907 +23 24 50.39777
 2018-Nov-23 07:31  m  06 48 46.779265 +23 24 50.59668
 2018-Nov-23 07:32  m  06 48 46.761617 +23 24 50.79559
 2018-Nov-23 07:33  m  06 48 46.743962 +23 24 50.99450
 2018-Nov-23 07:34  m  06 48 46.726300 +23 24 51.19340
 2018-Nov-23 07:35  m  06 48 46.708630 +23 24 51.39230
 2018-Nov-23 07:36  m  06 48 46.690954 +23 24 51.59120
 2018-Nov-23 07:37  m  06 48 46.673271 +23 24 51.79009
 2018-Nov-23 07:38  m  06 48 46.655580 +23 24 51.98899
 2018-Nov-23 07:39  m  06 48 46.637883 +23 24 52.18787
 2018-Nov-23 07:40  m  06 48 46.620178 +23 24 52.38676
 2018-Nov-23 07:41  m  06 48 46.602467 +23 24 52.58564
 2018-Nov-23 07:42  m  06 48 46.584749 +23 24 52.78451
 2018-Nov-23 07:43  m  06 48 46.567023 +23 24 52.98338
 2018-Nov-23 07:44  m  06 48 46.549291 +23 24 53.18225
